NORAD_CAT_ID,OBJECT_NAME,OBJECT_TYPE,EPOCH,MEAN_MOTION,ECCENTRICITY,INCLINATION,RA_OF_ASC_NODE,ARG_OF_PERICENTER,MEAN_ANOMALY,BSTAR,MEAN_MOTION_DOT,MEAN_MOTION_DDOT,TLE_LINE0,TLE_LINE1,TLE_LINE2,SEMIMAJOR_AXIS,PERIOD,APOGEE,PERIGEE,DECAYED
49146.0,STARLINK-3116,PAYLOAD,2024-04-29 12:32:53,14.9832658,0.0003001,70.0005,186.8834,270.5253,89.5562,-0.00011483,-1.463e-05,0.0,0 STARLINK-3116,1 49146U 21082S   24120.52283842 -.00001463  00000-0 -11483-3 0  9996,2 49146  70.0005 186.8834 0003001 270.5253  89.5562 14.98326580145892,6950.203,96.107,574.154,569.983,0.0
49146.0,STARLINK-3116,PAYLOAD,2024-04-30 04:34:13,14.98315923,0.0003127,70.0002,185.2004,267.7258,92.3543,0.00032924,3.836e-05,0.0,0 STARLINK-3116,1 49146U 21082S   24121.19043595  .00003836  00000-0  32924-3 0  9996,2 49146  70.0002 185.2004 0003127 267.7258  92.3543 14.98315923146007,6950.236,96.108,574.275,569.928,0.0
49146.0,STARLINK-3116,PAYLOAD,2024-04-30 14:11:01,14.98324379,0.0003201,70.0,184.1901,268.1236,91.9557,0.0003264,3.803e-05,0.0,0 STARLINK-3116,1 49146U 21082S   24121.59099498  .00003803  00000-0  32640-3 0  9992,2 49146  70.0000 184.1901 0003201 268.1236  91.9557 14.98324379146053,6950.21,96.107,574.3,569.851,0.0
49146.0,STARLINK-3116,PAYLOAD,2024-05-01 04:36:14,14.98339012,0.0003273,69.9998,182.6751,268.6831,91.3953,0.00021794,2.509e-05,0.0,0 STARLINK-3116,1 49146U 21082S   24122.19182882  .00002509  00000-0  21794-3 0  9999,2 49146  69.9998 182.6751 0003273 268.6831  91.3953 14.98339012146152,6950.165,96.106,574.305,569.755,0.0
49146.0,STARLINK-3116,PAYLOAD,2024-05-01 11:00:45,14.98344437,0.0003244,69.9999,182.002,268.37,91.7088,0.00026592,3.082e-05,0.0,0 STARLINK-3116,1 49146U 21082S   24122.45886286  .00003082  00000-0  26592-3 0  9995,2 49146  69.9999 182.0020 0003244 268.3700  91.7088 14.98344437146189,6950.148,96.106,574.268,569.759,0.0
49146.0,STARLINK-3116,PAYLOAD,2024-05-01 20:37:34,14.98342492,0.0003276,69.9997,180.9924,267.9074,92.171,0.0001648,1.875e-05,0.0,0 STARLINK-3116,1 49146U 21082S   24122.85942305  .00001875  00000-0  16480-3 0  9997,2 49146  69.9997 180.9924 0003276 267.9074  92.1710 14.98342492146244,6950.154,96.106,574.296,569.742,0.0
49146.0,STARLINK-3116,PAYLOAD,2024-05-02 04:38:15,14.98335822,0.0003027,70.0005,180.1518,265.9435,94.1378,-1.1376e-05,-2.29e-06,0.0,0 STARLINK-3116,1 49146U 21082S   24123.19322996 -.00000229  00000-0 -11376-4 0  9997,2 49146  70.0005 180.1518 0003027 265.9435  94.1378 14.98335822146309,6950.175,96.107,574.144,569.936,0.0
49146.0,STARLINK-3116,PAYLOAD,2024-05-02 14:15:03,14.98334904,0.0003046,70.0003,179.1418,266.1492,93.9319,-3.0069e-05,-4.52e-06,0.0,0 STARLINK-3116,1 49146U 21082S   24123.59378872 -.00000452  00000-0 -30069-4 0  9993,2 49146  70.0003 179.1418 0003046 266.1492  93.9319 14.98334904146358,6950.178,96.107,574.16,569.926,0.0
49146.0,STARLINK-3116,PAYLOAD,2024-05-03 04:40:15,14.98345309,0.0003059,70.0001,177.6266,267.3012,92.7797,-3.014e-05,-4.53e-06,0.0,0 STARLINK-3116,1 49146U 21082S   24124.19461846 -.00000453  00000-0 -30140-4 0  9995,2 49146  70.0001 177.6266 0003059 267.3012  92.7797 14.98345309146454,6950.146,96.106,574.137,569.885,0.0
49146.0,STARLINK-3116,PAYLOAD,2024-05-03 12:40:55,14.98344695,0.0003061,70.0,176.7844,270.0406,90.0402,-4.001e-05,-5.71e-06,0.0,0 STARLINK-3116,1 49146U 21082S   24124.52841602 -.00000571  00000-0 -40010-4 0  9992,2 49146  70.0000 176.7844 0003061 270.0406  90.0402 14.98344695146491,6950.147,96.106,574.14,569.885,0.0
49146.0,STARLINK-3116,PAYLOAD,2024-05-03 20:41:36,14.98332176,0.0002982,70.0001,175.9424,269.9814,90.1003,-7.6526e-05,-1.006e-05,0.0,0 STARLINK-3116,1 49146U 21082S   24124.86222306 -.00001006  00000-0 -76526-4 0  9998,2 49146  70.0001 175.9424 0002982 269.9814  90.1003 14.98332176146543,6950.186,96.107,574.124,569.979,0.0
49146.0,STARLINK-3116,PAYLOAD,2024-05-04 04:42:17,14.98313804,0.0002976,70.0,175.1011,270.1464,89.9354,-0.00015182,-1.903e-05,0.0,0 STARLINK-3116,1 49146U 21082S   24125.19603787 -.00001903  00000-0 -15182-3 0  9997,2 49146  70.0000 175.1011 0002976 270.1464  89.9354 14.98313804146603,6950.243,96.108,574.176,570.04,0.0
49146.0,STARLINK-3116,PAYLOAD,2024-05-05 04:44:18,14.98322501,0.0002945,70.0,172.5769,269.4534,90.6287,-0.00011917,-1.514e-05,0.0,0 STARLINK-3116,1 49146U 21082S   24126.19744064 -.00001514  00000-0 -11917-3 0  9992,2 49146  70.0000 172.5769 0002945 269.4534  90.6287 14.98322501146753,6950.216,96.107,574.128,570.034,0.0
49146.0,STARLINK-3116,PAYLOAD,2024-05-05 12:44:59,14.98319132,0.0002915,70.0001,171.7354,269.1672,90.9153,-0.00010361,-1.329e-05,0.0,0 STARLINK-3116,1 49146U 21082S   24126.53124465 -.00001329  00000-0 -10361-3 0  9993,2 49146  70.0001 171.7354 0002915 269.1672  90.9153 14.98319132146797,6950.226,96.108,574.117,570.066,0.0
49146.0,STARLINK-3116,PAYLOAD,2024-05-05 20:45:39,14.98323753,0.0003308,69.9998,170.8937,250.4696,109.6106,-2.9439e-05,-4.44e-06,0.0,0 STARLINK-3116,1 49146U 21082S   24126.86504026 -.00000444  00000-0 -29439-4 0  9998,2 49146  69.9998 170.8937 0003308 250.4696 109.6106 14.98323753146848,6950.212,96.107,574.376,569.778,0.0
49146.0,STARLINK-3116,PAYLOAD,2024-05-06 04:46:19,14.98319802,0.0003212,69.9991,170.0513,269.686,90.393,0.00023732,2.739e-05,0.0,0 STARLINK-3116,1 49146U 21082S   24127.19883881  .00002739  00000-0  23732-3 0  9990,2 49146  69.9991 170.0513 0003212 269.6860  90.3930 14.98319802146900,6950.224,96.108,574.322,569.857,0.0
49146.0,STARLINK-3116,PAYLOAD,2024-05-06 12:46:59,14.98327327,0.0003187,69.9991,169.2096,269.2617,90.8177,0.0002687,3.114e-05,0.0,0 STARLINK-3116,1 49146U 21082S   24127.53263587  .00003114  00000-0  26870-3 0  9997,2 49146  69.9991 169.2096 0003187 269.2617  90.8177 14.98327327146957,6950.201,96.107,574.281,569.851,0.0
49146.0,STARLINK-3116,PAYLOAD,2024-05-07 04:48:19,14.98340273,0.0003262,69.9989,167.5265,268.8401,91.2384,0.00026886,3.117e-05,0.0,0 STARLINK-3116,1 49146U 21082S   24128.20022726  .00003117  00000-0  26886-3 0  9990,2 49146  69.9989 167.5265 0003262 268.8401  91.2384 14.98340273147055,6950.161,96.106,574.293,569.759,0.0
49146.0,STARLINK-3116,PAYLOAD,2024-05-07 12:48:59,14.9834509,0.0003221,69.999,166.6848,268.8431,91.2359,0.00031092,3.62e-05,0.0,0 STARLINK-3116,1 49146U 21082S   24128.53402210  .00003620  00000-0  31092-3 0  9990,2 49146  69.9990 166.6848 0003221 268.8431  91.2359 14.98345090147090,6950.146,96.106,574.25,569.773,0.0
49146.0,STARLINK-3116,PAYLOAD,2024-05-08 04:50:20,14.9833874,0.0003082,69.9995,165.0016,269.0361,91.0445,2.3498e-05,1.87e-06,0.0,0 STARLINK-3116,1 49146U 21082S   24129.20162859  .00000187  00000-0  23498-4 0  9994,2 49146  69.9995 165.0016 0003082 269.0361  91.0445 14.98338740147206,6950.166,96.106,574.173,569.889,0.0
49146.0,STARLINK-3116,PAYLOAD,2024-05-08 11:14:52,14.98339074,0.0003056,69.9995,164.3285,268.9478,91.1331,2.0777e-05,1.55e-06,0.0,0 STARLINK-3116,1 49146U 21082S   24129.46866660  .00000155  00000-0  20777-4 0  9995,2 49146  69.9995 164.3285 0003056 268.9478  91.1331 14.98339074147233,6950.165,96.106,574.154,569.906,0.0
49146.0,STARLINK-3116,PAYLOAD,2024-05-08 19:15:33,14.98338456,0.000307,69.9995,163.4867,269.4994,90.5814,-3.676e-05,-5.32e-06,0.0,0 STARLINK-3116,1 49146U 21082S   24129.80246563 -.00000532  00000-0 -36760-4 0  9997,2 49146  69.9995 163.4867 0003070 269.4994  90.5814 14.98338456147281,6950.167,96.106,574.165,569.898,0.0
49146.0,STARLINK-3116,PAYLOAD,2024-05-09 04:52:21,14.98339415,0.0002987,69.9996,162.4769,270.4374,89.6442,-0.0001195,-1.519e-05,0.0,0 STARLINK-3116,1 49146U 21082S   24130.20302503 -.00001519  00000-0 -11950-3 0  9999,2 49146  69.9996 162.4769 0002987 270.4374  89.6442 14.98339415147352,6950.164,96.106,574.105,569.953,0.0
49146.0,STARLINK-3116,PAYLOAD,2024-05-09 11:16:53,14.98336025,0.0003032,69.9996,161.804,268.3416,91.7396,-0.00015214,-1.908e-05,0.0,0 STARLINK-3116,1 49146U 21082S   24130.47006610 -.00001908  00000-0 -15214-3 0  9997,2 49146  69.9996 161.8040 0003032 268.3416  91.7396 14.98336025147381,6950.174,96.107,574.147,569.932,0.0
49146.0,STARLINK-3116,PAYLOAD,2024-05-10 04:54:22,14.98332114,0.0003132,69.9994,159.9523,268.6451,91.4349,3.9414e-05,3.77e-06,0.0,0 STARLINK-3116,1 49146U 21082S   24131.20442216  .00000377  00000-0  39414-4 0  9991,2 49146  69.9994 159.9523 0003132 268.6451  91.4349 14.98332114147500,6950.186,96.107,574.228,569.875,0.0
49146.0,STARLINK-3116,PAYLOAD,2024-05-10 11:18:54,14.9833156,0.000314,69.9994,159.2791,268.4143,91.6657,3.1667e-05,2.85e-06,0.0,0 STARLINK-3116,1 49146U 21082S   24131.47146253  .00000285  00000-0  31667-4 0  9992,2 49146  69.9994 159.2791 0003140 268.4143  91.6657 14.98331560147536,6950.188,96.107,574.235,569.871,0.0
49146.0,STARLINK-3116,PAYLOAD,2024-05-10 19:19:34,14.98334158,0.0003249,69.9992,158.4377,270.4333,89.6453,5.859e-05,6.06e-06,0.0,0 STARLINK-3116,1 49146U 21082S   24131.80525981  .00000606  00000-0  58590-4 0  9999,2 49146  69.9992 158.4377 0003249 270.4333  89.6453 14.98334158147581,6950.18,96.107,574.303,569.787,0.0
49146.0,STARLINK-3116,PAYLOAD,2024-05-11 04:56:22,14.98337103,0.0003321,69.999,157.4275,270.0178,90.06,0.00016829,1.916e-05,0.0,0 STARLINK-3116,1 49146U 21082S   24132.20581575  .00001916  00000-0  16829-3 0  9998,2 49146  69.9990 157.4275 0003321 270.0178  90.0600 14.98337103147650,6950.171,96.107,574.344,569.728,0.0
49146.0,STARLINK-3116,PAYLOAD,2024-05-11 11:20:53,14.98353802,0.000331,69.9988,156.7543,271.7003,88.3777,0.0003505,4.094e-05,0.0,0 STARLINK-3116,1 49146U 21082S   24132.47284081  .00004094  00000-0  35050-3 0  9996,2 49146  69.9988 156.7543 0003310 271.7003  88.3777 14.98353802147693,6950.119,96.105,574.285,569.684,0.0
49146.0,STARLINK-3116,PAYLOAD,2024-05-11 19:21:34,14.98346462,0.0002663,70.0012,155.9126,285.9196,74.167,0.00030493,3.549e-05,0.0,0 STARLINK-3116,1 49146U 21082S   24132.80665082  .00003549  00000-0  30493-3 0  9997,2 49146  70.0012 155.9126 0002663 285.9196  74.1670 14.98346462147747,6950.142,96.106,573.858,570.156,0.0
